ORBCOMM FM115           
1 41186U 15081H   25213.54763889  .00000789  00000+0  18822-3 0  9995
2 41186  46.9972 183.8121 0001731 280.3675  79.7017 14.62561697514419
ORBCOMM FM108           
1 41187U 15081J   25213.46131800  .00000451  00000+0  13323-3 0  9996
2 41187  47.0038 253.1557 0002430 190.7193 169.3641 14.58212934513404
ORBCOMM FM117           
1 41188U 15081K   25213.49601185  .00000439  00000+0  13086-3 0  9990
2 41188  47.0001 251.7381 0003166 195.2128 164.8662 14.58216456513450
ORBCOMM FM116           
1 41189U 15081L   25213.55152291  .00000871  00000+0  22311-3 0  9998
2 41189  47.0037 341.3072 0001578 342.7542  17.3289 14.58293116512271
